{
  "type": "FeatureCollection",
  "features": [
    {
      "type": "Feature",
      "properties": {
        "norad_id": 32376,
        "name": "COSMO-SKYMED 2",
        "group": "resource",
        "lat": -67.69473737540943,
        "lon": -24.284109172776326,
        "alt_km": 630.727853403444,
        "timestamp": "2025-12-20T05:41:49.674817+00:00",
        "meta_object_name": "COSMO-SKYMED 2",
        "meta_object_id": "2007-059A",
        "meta_epoch": "2025-12-19T22:05:45.462048",
        "meta_mean_motion": 14.8215075,
        "meta_eccentricity": 0.00013535,
        "meta_inclination": 97.8804,
        "meta_ra_of_asc_node": 175.1363,
        "meta_arg_of_pericenter": 82.9394,
        "meta_mean_anomaly": 277.1973,
        "meta_ephemeris_type": 0,
        "meta_classification_type": "U",
        "meta_norad_cat_id": 32376,
        "meta_element_set_no": 999,
        "meta_rev_at_epoch": 97544,
        "meta_bstar": 5.1680259e-05,
        "meta_mean_motion_dot": 3.59e-06,
        "meta_mean_motion_ddot": 0,
        "tle_line1": "1 32376U 07059A   25353.92066507  .00000359  00000+0  51680-4 0  9995",
        "tle_line2": "2 32376  97.8804 175.1363 0001353  82.9394 277.1973 14.82150750975440"
      },
      "geometry": {
        "type": "Point",
        "coordinates": [
          -24.284109172776326,
          -67.69473737540943
        ]
      }
    },
    {
      "type": "Feature",
      "properties": {
        "norad_id": 32382,
        "name": "RADARSAT-2",
        "group": "resource",
        "lat": -51.43774673886825,
        "lon": 167.80316034208906,
        "alt_km": 799.3635951727119,
        "timestamp": "2025-12-20T05:41:49.674827+00:00",
        "meta_object_name": "RADARSAT-2",
        "meta_object_id": "2007-061A",
        "meta_epoch": "2025-12-19T23:34:36.537312",
        "meta_mean_motion": 14.29983859,
        "meta_eccentricity": 0.00011092,
        "meta_inclination": 98.5791,
        "meta_ra_of_asc_node": 358.4673,
        "meta_arg_of_pericenter": 85.6069,
        "meta_mean_anomaly": 274.524,
        "meta_ephemeris_type": 0,
        "meta_classification_type": "U",
        "meta_norad_cat_id": 32382,
        "meta_element_set_no": 999,
        "meta_rev_at_epoch": 94034,
        "meta_bstar": 3.9467192e-05,
        "meta_mean_motion_dot": 5.8e-07,
        "meta_mean_motion_ddot": 0,
        "tle_line1": "1 32382U 07061A   25353.98236733  .00000058  00000+0  39467-4 0  9996",
        "tle_line2": "2 32382  98.5791 358.4673 0001109  85.6069 274.5240 14.29983859940342"
      },
      "geometry": {
        "type": "Point",
        "coordinates": [
          167.80316034208906,
          -51.43774673886825
        ]
      }
    },
    {
      "type": "Feature",
      "properties": {
        "norad_id": 32783,
        "name": "CARTOSAT-2A",
        "group": "resource",
        "lat": -57.13498027210422,
        "lon": 56.06438033940425,
        "alt_km": 633.5134739040441,
        "timestamp": "2025-12-20T05:41:49.674838+00:00",
        "meta_object_name": "CARTOSAT-2A",
        "meta_object_id": "2008-021A",
        "meta_epoch": "2025-12-19T21:50:22.113024",
        "meta_mean_motion": 14.78949388,
        "meta_eccentricity": 0.0011298,
        "meta_inclination": 97.7925,
        "meta_ra_of_asc_node": 43.5098,
        "meta_arg_of_pericenter": 341.4154,
        "meta_mean_anomaly": 18.6644,
        "meta_ephemeris_type": 0,
        "meta_classification_type": "U",
        "meta_norad_cat_id": 32783,
        "meta_element_set_no": 999,
        "meta_rev_at_epoch": 95230,
        "meta_bstar": 0.00010597904,
        "meta_mean_motion_dot": 7.32e-06,
        "meta_mean_motion_ddot": 0,
        "tle_line1": "1 32783U 08021A   25353.90997816  .00000732  00000+0  10598-3 0  9998",
        "tle_line2": "2 32783  97.7925  43.5098 0011298 341.4154  18.6644 14.78949388952305"
      },
      "geometry": {
        "type": "Point",
        "coordinates": [
          56.06438033940425,
          -57.13498027210422
        ]
      }
    },
    {
      "type": "Feature",
      "properties": {
        "norad_id": 33320,
        "name": "HUANJING 1A (HJ-1A)",
        "group": "resource",
        "lat": -70.95976861149167,
        "lon": 5.154810716649099,
        "alt_km": 624.1629693278692,
        "timestamp": "2025-12-20T05:41:49.674848+00:00",
        "meta_object_name": "HUANJING 1A (HJ-1A)",
        "meta_object_id": "2008-041A",
        "meta_epoch": "2025-12-19T23:32:50.093376",
        "meta_mean_motion": 14.83414116,
        "meta_eccentricity": 0.00196288,
        "meta_inclination": 97.6535,
        "meta_ra_of_asc_node": 341.9772,
        "meta_arg_of_pericenter": 11.3481,
        "meta_mean_anomaly": 348.8172,
        "meta_ephemeris_type": 0,
        "meta_classification_type": "U",
        "meta_norad_cat_id": 33320,
        "meta_element_set_no": 999,
        "meta_rev_at_epoch": 93183,
        "meta_bstar": 0.00010046819,
        "meta_mean_motion_dot": 7.76e-06,
        "meta_mean_motion_ddot": 0,
        "tle_line1": "1 33320U 08041A   25353.98113534  .00000776  00000+0  10047-3 0  9990",
        "tle_line2": "2 33320  97.6535 341.9772 0019628  11.3481 348.8172 14.83414116931835"
      },
      "geometry": {
        "type": "Point",
        "coordinates": [
          5.154810716649099,
          -70.95976861149167
        ]
      }
    },
    {
      "type": "Feature",
      "properties": {
        "norad_id": 33321,
        "name": "HUANJING 1B (HJ-1B)",
        "group": "resource",
        "lat": 45.62278945669864,
        "lon": 173.78421654163566,
        "alt_km": 612.5252051930092,
        "timestamp": "2025-12-20T05:41:49.674859+00:00",
        "meta_object_name": "HUANJING 1B (HJ-1B)",
        "meta_object_id": "2008-041B",
        "meta_epoch": "2025-12-19T22:37:16.821120",
        "meta_mean_motion": 14.82839799,
        "meta_eccentricity": 0.00379852,
        "meta_inclination": 97.6395,
        "meta_ra_of_asc_node": 345.6183,
        "meta_arg_of_pericenter": 53.019,
        "meta_mean_anomaly": 307.4492,
        "meta_ephemeris_type": 0,
        "meta_classification_type": "U",
        "meta_norad_cat_id": 33321,
        "meta_element_set_no": 999,
        "meta_rev_at_epoch": 93184,
        "meta_bstar": 0.00015884085,
        "meta_mean_motion_dot": 1.25e-05,
        "meta_mean_motion_ddot": 0,
        "tle_line1": "1 33321U 08041B   25353.94255580  .00001250  00000+0  15884-3 0  9997",
        "tle_line2": "2 33321  97.6395 345.6183 0037985  53.0190 307.4492 14.82839799931847"
      },
      "geometry": {
        "type": "Point",
        "coordinates": [
          173.78421654163566,
          45.62278945669864
        ]
      }
    },
    {
      "type": "Feature",
      "properties": {
        "norad_id": 33331,
        "name": "GEOEYE 1",
        "group": "resource",
        "lat": -7.8118279507873805,
        "lon": 66.54646609292246,
        "alt_km": 682.285830349856,
        "timestamp": "2025-12-20T05:41:49.674869+00:00",
        "meta_object_name": "GEOEYE 1",
        "meta_object_id": "2008-042A",
        "meta_epoch": "2025-12-19T18:15:22.928256",
        "meta_mean_motion": 14.64709112,
        "meta_eccentricity": 0.00028007,
        "meta_inclination": 98.1245,
        "meta_ra_of_asc_node": 64.9529,
        "meta_arg_of_pericenter": 254.2617,
        "meta_mean_anomaly": 105.8277,
        "meta_ephemeris_type": 0,
        "meta_classification_type": "U",
        "meta_norad_cat_id": 33331,
        "meta_element_set_no": 999,
        "meta_rev_at_epoch": 92388,
        "meta_bstar": 8.4483362e-05,
        "meta_mean_motion_dot": 4.02e-06,
        "meta_mean_motion_ddot": 0,
        "tle_line1": "1 33331U 08042A   25353.76068204  .00000402  00000+0  84483-4 0  9994",
        "tle_line2": "2 33331  98.1245  64.9529 0002800 254.2617 105.8277 14.64709112923881"
      },
      "geometry": {
        "type": "Point",
        "coordinates": [
          66.54646609292246,
          -7.8118279507873805
        ]
      }
    },
    {
      "type": "Feature",
      "properties": {
        "norad_id": 33396,
        "name": "THEOS",
        "group": "resource",
        "lat": 80.50320487890221,
        "lon": -12.473695900934038,
        "alt_km": 816.7602272157455,
        "timestamp": "2025-12-20T05:41:49.674880+00:00",
        "meta_object_name": "THEOS",
        "meta_object_id": "2008-049A",
        "meta_epoch": "2025-12-19T22:31:48.393984",
        "meta_mean_motion": 14.20097491,
        "meta_eccentricity": 0.00011717,
        "meta_inclination": 98.5864,
        "meta_ra_of_asc_node": 51.8163,
        "meta_arg_of_pericenter": 95.9142,
        "meta_mean_anomaly": 264.2169,
        "meta_ephemeris_type": 0,
        "meta_classification_type": "U",
        "meta_norad_cat_id": 33396,
        "meta_element_set_no": 999,
        "meta_rev_at_epoch": 89252,
        "meta_bstar": 4.9297604e-05,
        "meta_mean_motion_dot": 6.2e-07,
        "meta_mean_motion_ddot": 0,
        "tle_line1": "1 33396U 08049A   25353.93875456  .00000062  00000+0  49298-4 0  9993",
        "tle_line2": "2 33396  98.5864  51.8163 0001171  95.9142 264.2169 14.20097491892523"
      },
      "geometry": {
        "type": "Point",
        "coordinates": [
          -12.473695900934038,
          80.50320487890221
        ]
      }
    }
  ]
}